{"type": "FeatureCollection", "name": "desa-kote-batas-usulan-gadm", "crs": {"type": "name", "properties": {"name": "urn:ogc:def:crs:OGC:1.3:CRS84"}}, "catatan": "RANCANGAN, BUKAN BATAS RESMI. Sumber GADM 4.1 — luasnya 21,36 km², sedangkan luas resmi BPS 13,55 km². Pakai sebagai kerangka awal saja.", "features": [{"type": "Feature", "properties": {"nama": "Desa Kote", "sumber": "GADM 4.1 (turunan data administratif Indonesia)", "titik": 18}, "geometry": {"type": "Polygon", "coordinates": [[[104.4923, -0.3791], [104.4851, -0.3598], [104.4844, -0.3531], [104.4859, -0.3504], [104.4888, -0.3527], [104.4912, -0.3516], [104.4944, -0.3563], [104.4981, -0.357], [104.5058, -0.3629], [104.5166, -0.3639], [104.5229, -0.3614], [104.5284, -0.3631], [104.5367, -0.3685], [104.5395, -0.3723], [104.523, -0.397], [104.5038, -0.413], [104.4948, -0.392], [104.4923, -0.3791]]]}}]}