{"type": "FeatureCollection", "name": "desa-kote-tempat", "crs": {"type": "name", "properties": {"name": "urn:ogc:def:crs:OGC:1.3:CRS84"}}, "catatan": "Titik lokasi Desa Kote. Sumber: survei tim KKN Kelompok 67 & OpenStreetMap.", "features": [{"type": "Feature", "properties": {"nama": "Dermaga Kote", "kategori": "infrastruktur", "deskripsi": "Dermaga di pesisir Desa Kote. BPS mencatat Kote memiliki satu-satunya pelabuhan di Kecamatan Singkep Pesisir, tempat singgah kapal angkutan barang.\n\nKoordinat dari OpenStreetMap (man_made=pier); namanya belum tercatat di sana, jadi mohon dipastikan di lapangan."}, "geometry": {"type": "Point", "coordinates": [104.506733, -0.362489]}}]}